ORBCOMM FM24            
1 25478U 98053D   25221.72624903  .00000962  00000+0  36045-3 0  9993
2 25478  45.0092  15.2246 0003140 149.5701 210.5330 14.38202167405437
ORBCOMM FM25            
1 25479U 98053E   25221.55970886  .00000937  00000+0  35229-3 0  9994
2 25479  45.0085  14.2925 0005529 155.8653 204.2455 14.38172536405425
ORBCOMM FM26            
1 25480U 98053F   25221.74538772  .00000750  00000+0  29677-3 0  9994
2 25480  45.0082  10.2581 0007350 171.9603 188.1364 14.37217366405458
ORBCOMM FM27            
1 25481U 98053G   25221.54626253  .00000945  00000+0  35492-3 0  9993
2 25481  45.0066  14.5394 0001814 163.2169 196.8739 14.38204253405353
ORBCOMM FM28            
1 25482U 98053H   25221.50762822  .00000785  00000+0  30157-3 0  9998
2 25482  45.0065 312.1500 0006494 211.8655 148.1802 14.38381663406036
ORBCOMM FM30            
1 25980U 99065A   25221.31222130  .00000727  00000+0  28809-3 0  9994
2 25980  45.0302 198.2409 0008631 281.2372  78.7506 14.37379570342093
ORBCOMM FM31            
1 25981U 99065B   25221.35728381  .00000660  00000+0  26653-3 0  9999
2 25981  45.0216 191.5036 0006139 301.4816  58.5431 14.37316220341656
ORBCOMM FM32            
1 25982U 99065C   25221.36957459  .00000779  00000+0  31169-3 0  9990
2 25982  45.0142 208.3823 0008569 294.9752  65.0205 14.36364712342246
